{"type": "FeatureCollection", "features": [ {"type": "Feature", "properties": {"norad_id": 31493, "name": "FENGYUN 1C DEB", "group": "fengyun-1c-debris", "lat": -53.018062617112626, "lon": -39.88975410042133, "alt_km": 1007.0334694779021, "timestamp": "2025-12-25T07:00:34.330866+00:00", "meta": {"OBJECT_NAME": "FENGYUN 1C DEB", "OBJECT_ID": "1999-025BWG", "EPOCH": "2025-12-22T17:13:02.407872", "MEAN_MOTION": 13.92988656, "ECCENTRICITY": 0.01172987, "INCLINATION": 100.137, "RA_OF_ASC_NODE": 303.5504, "ARG_OF_PERICENTER": 149.0883, "MEAN_ANOMALY": 211.7248, "EPHEMERIS_TYPE": 0, "CLASSIFICATION_TYPE": "U", "NORAD_CAT_ID": 31493, "ELEMENT_SET_NO": 999, "REV_AT_EPOCH": 60005, "BSTAR": 0.00084589996, "MEAN_MOTION_DOT": 1.111e-05, "MEAN_MOTION_DDOT": 0}, "tle": {"line1": "1 31493U 99025BWG 25356.71738898  .00001111  00000+0  84590-3 0  9999", "line2": "2 31493 100.1370 303.5504 0117298 149.0883 211.7248 13.92988656600058"}}, "geometry": {"type": "Point", "coordinates": [-39.88975410042133, -53.018062617112626]}}, {"type": "Feature", "properties": {"norad_id": 31495, "name": "FENGYUN 1C DEB", "group": "fengyun-1c-debris", "lat": -30.746234742526173, "lon": -121.47103880148505, "alt_km": 818.2590912763444, "timestamp": "2025-12-25T07:00:34.330877+00:00", "meta": {"OBJECT_NAME": "FENGYUN 1C DEB", "OBJECT_ID": "1999-025BWJ", "EPOCH": "2025-12-20T09:32:47.149152", "MEAN_MOTION": 14.29252624, "ECCENTRICITY": 0.00255899, "INCLINATION": 99.12, "RA_OF_ASC_NODE": 227.9275, "ARG_OF_PERICENTER": 154.7696, "MEAN_ANOMALY": 205.474, "EPHEMERIS_TYPE": 0, "CLASSIFICATION_TYPE": "U", "NORAD_CAT_ID": 31495, "ELEMENT_SET_NO": 999, "REV_AT_EPOCH": 63500, "BSTAR": 0.00086082116, "MEAN_MOTION_DOT": 2.149e-05, "MEAN_MOTION_DDOT": 0}, "tle": {"line1": "1 31495U 99025BWJ 25354.39776793  .00002149  00000+0  86082-3 0  9999", "line2": "2 31495  99.1200 227.9275 0025589 154.7696 205.4740 14.29252624635009"}}, "geometry": {"type": "Point", "coordinates": [-121.47103880148505, -30.746234742526173]}}, {"type": "Feature", "properties": {"norad_id": 31497, "name": "FENGYUN 1C DEB", "group": "fengyun-1c-debris", "lat": -31.474883441712283, "lon": 157.3893235769295, "alt_km": 772.6444677036161, "timestamp": "2025-12-25T07:00:34.330887+00:00", "meta": {"OBJECT_NAME": "FENGYUN 1C DEB", "OBJECT_ID": "1999-025BWL", "EPOCH": "2025-12-20T04:29:02.353920", "MEAN_MOTION": 14.39239205, "ECCENTRICITY": 0.01673435, "INCLINATION": 98.371, "RA_OF_ASC_NODE": 337.5747, "ARG_OF_PERICENTER": 320.7302, "MEAN_ANOMALY": 96.6636, "EPHEMERIS_TYPE": 0, "CLASSIFICATION_TYPE": "U", "NORAD_CAT_ID": 31497, "ELEMENT_SET_NO": 999, "REV_AT_EPOCH": 97662, "BSTAR": 0.00018663983, "MEAN_MOTION_DOT": 6.31e-06, "MEAN_MOTION_DDOT": 0}, "tle": {"line1": "1 31497U 99025BWL 25354.18683280  .00000631  00000+0  18664-3 0  9991", "line2": "2 31497  98.3710 337.5747 0167343 320.7302  96.6636 14.39239205976625"}}, "geometry": {"type": "Point", "coordinates": [157.3893235769295, -31.474883441712283]}}, {"type": "Feature", "properties": {"norad_id": 31498, "name": "FENGYUN 1C DEB", "group": "fengyun-1c-debris", "lat": -28.36625432158466, "lon": 144.6934281026737, "alt_km": 998.1087483655447, "timestamp": "2025-12-25T07:00:34.330898+00:00", "meta": {"OBJECT_NAME": "FENGYUN 1C DEB", "OBJECT_ID": "1999-025BWM", "EPOCH": "2025-12-20T21:23:31.452864", "MEAN_MOTION": 13.77022887, "ECCENTRICITY": 0.0219158, "INCLINATION": 98.4859, "RA_OF_ASC_NODE": 325.3849, "ARG_OF_PERICENTER": 122.8448, "MEAN_ANOMALY": 239.4012, "EPHEMERIS_TYPE": 0, "CLASSIFICATION_TYPE": "U", "NORAD_CAT_ID": 31498, "ELEMENT_SET_NO": 999, "REV_AT_EPOCH": 92846, "BSTAR": 0.0012225, "MEAN_MOTION_DOT": 1.406e-05, "MEAN_MOTION_DDOT": 0}, "tle": {"line1": "1 31498U 99025BWM 25354.89133626  .00001406  00000+0  12225-2 0  9991", "line2": "2 31498  98.4859 325.3849 0219158 122.8448 239.4012 13.77022887928464"}}, "geometry": {"type": "Point", "coordinates": [144.6934281026737, -28.36625432158466]}}, {"type": "Feature", "properties": {"norad_id": 31503, "name": "FENGYUN 1C DEB", "group": "fengyun-1c-debris", "lat": 19.816704480713824, "lon": -136.46470048471733, "alt_km": 839.4618766271296, "timestamp": "2025-12-25T07:00:34.330908+00:00", "meta": {"OBJECT_NAME": "FENGYUN 1C DEB", "OBJECT_ID": "1999-025BWS", "EPOCH": "2025-12-23T21:09:21.265632", "MEAN_MOTION": 14.22635113, "ECCENTRICITY": 0.0048906, "INCLINATION": 100.0985, "RA_OF_ASC_NODE": 225.603, "ARG_OF_PERICENTER": 155.2657, "MEAN_ANOMALY": 205.0876, "EPHEMERIS_TYPE": 0, "CLASSIFICATION_TYPE": "U", "NORAD_CAT_ID": 31503, "ELEMENT_SET_NO": 999, "REV_AT_EPOCH": 64405, "BSTAR": 0.00094914, "MEAN_MOTION_DOT": 2.094e-05, "MEAN_MOTION_DDOT": 0}, "tle": {"line1": "1 31503U 99025BWS 25357.88149613  .00002094  00000+0  94914-3 0  9993", "line2": "2 31503 100.0985 225.6030 0048906 155.2657 205.0876 14.22635113644058"}}, "geometry": {"type": "Point", "coordinates": [-136.46470048471733, 19.816704480713824]}}, {"type": "Feature", "properties": {"norad_id": 31507, "name": "FENGYUN 1C DEB", "group": "fengyun-1c-debris", "lat": -12.315377207402786, "lon": 33.04320563598644, "alt_km": 671.1129175244141, "timestamp": "2025-12-25T07:00:34.330918+00:00", "meta": {"OBJECT_NAME": "FENGYUN 1C DEB", "OBJECT_ID": "1999-025BWW", "EPOCH": "2025-12-24T08:12:17.080704", "MEAN_MOTION": 14.52213744, "ECCENTRICITY": 0.01173681, "INCLINATION": 98.1925, "RA_OF_ASC_NODE": 30.3135, "ARG_OF_PERICENTER": 42.7408, "MEAN_ANOMALY": 21.2973, "EPHEMERIS_TYPE": 0, "CLASSIFICATION_TYPE": "U", "NORAD_CAT_ID": 31507, "ELEMENT_SET_NO": 999, "REV_AT_EPOCH": 98189, "BSTAR": 0.00041736618, "MEAN_MOTION_DOT": 1.805e-05, "MEAN_MOTION_DDOT": 0}, "tle": {"line1": "1 31507U 99025BWW 25358.34186436  .00001805  00000+0  41737-3 0  9997", "line2": "2 31507  98.1925  30.3135 0117368  42.7408  21.2973 14.52213744981890"}}, "geometry": {"type": "Point", "coordinates": [33.04320563598644, -12.315377207402786]}}, {"type": "Feature", "properties": {"norad_id": 31508, "name": "FENGYUN 1C DEB", "group": "fengyun-1c-debris", "lat": 38.66717299029151, "lon": -64.61306528494161, "alt_km": 700.9200916594036, "timestamp": "2025-12-25T07:00:34.330929+00:00", "meta": {"OBJECT_NAME": "FENGYUN 1C DEB", "OBJECT_ID": "1999-025BWX", "EPOCH": "2025-12-22T06:07:52.254624", "MEAN_MOTION": 14.62716626, "ECCENTRICITY": 0.00341369, "INCLINATION": 98.626, "RA_OF_ASC_NODE": 105.2382, "ARG_OF_PERICENTER": 295.1567, "MEAN_ANOMALY": 64.6094, "EPHEMERIS_TYPE": 0, "CLASSIFICATION_TYPE": "U", "NORAD_CAT_ID": 31508, "ELEMENT_SET_NO": 999, "REV_AT_EPOCH": 97063, "BSTAR": 0.0030278047, "MEAN_MOTION_DOT": 0.00015531, "MEAN_MOTION_DDOT": 0}, "tle": {"line1": "1 31508U 99025BWX 25356.25546591  .00015531  00000+0  30278-2 0  9996", "line2": "2 31508  98.6260 105.2382 0034136 295.1567  64.6094 14.62716626970638"}}, "geometry": {"type": "Point", "coordinates": [-64.61306528494161, 38.66717299029151]}}, {"type": "Feature", "properties": {"norad_id": 31509, "name": "FENGYUN 1C DEB", "group": "fengyun-1c-debris", "lat": 11.079572044845698, "lon": 116.4913299688151, "alt_km": 1060.5739345323727, "timestamp": "2025-12-25T07:00:34.330939+00:00", "meta": {"OBJECT_NAME": "FENGYUN 1C DEB", "OBJECT_ID": "1999-025BWY", "EPOCH": "2025-12-24T18:54:12.775104", "MEAN_MOTION": 13.94966489, "ECCENTRICITY": 0.02044455, "INCLINATION": 99.0225, "RA_OF_ASC_NODE": 117.7807, "ARG_OF_PERICENTER": 185.9842, "MEAN_ANOMALY": 173.8874, "EPHEMERIS_TYPE": 0, "CLASSIFICATION_TYPE": "U", "NORAD_CAT_ID": 31509, "ELEMENT_SET_NO": 999, "REV_AT_EPOCH": 94130, "BSTAR": 0.0018573001, "MEAN_MOTION_DOT": 2.932e-05, "MEAN_MOTION_DDOT": 0}, "tle": {"line1": "1 31509U 99025BWY 25358.78764786  .00002932  00000+0  18573-2 0  9990", "line2": "2 31509  99.0225 117.7807 0204445 185.9842 173.8874 13.94966489941308"}}, "geometry": {"type": "Point", "coordinates": [116.4913299688151, 11.079572044845698]}}, {"type": "Feature", "properties": {"norad_id": 31510, "name": "FENGYUN 1C DEB", "group": "fengyun-1c-debris", "lat": 40.576272583893775, "lon": -9.240810523031406, "alt_km": 814.0481426069255, "timestamp": "2025-12-25T07:00:34.330950+00:00", "meta": {"OBJECT_NAME": "FENGYUN 1C DEB", "OBJECT_ID": "1999-025BWZ", "EPOCH": "2025-12-20T19:32:19.154112", "MEAN_MOTION": 14.24579723, "ECCENTRICITY": 0.0036702, "INCLINATION": 98.5531, "RA_OF_ASC_NODE": 353.8036, "ARG_OF_PERICENTER": 307.7687, "MEAN_ANOMALY": 180.91, "EPHEMERIS_TYPE": 0, "CLASSIFICATION_TYPE": "U", "NORAD_CAT_ID": 31510, "ELEMENT_SET_NO": 999, "REV_AT_EPOCH": 96602, "BSTAR": 0.00036270315, "MEAN_MOTION_DOT": 8.05e-06, "MEAN_MOTION_DDOT": 0}, "tle": {"line1": "1 31510U 99025BWZ 25354.81411058  .00000805  00000+0  36270-3 0  9995", "line2": "2 31510  98.5531 353.8036 0036702 307.7687 180.9100 14.24579723966023"}}, "geometry": {"type": "Point", "coordinates": [-9.240810523031406, 40.576272583893775]}}, {"type": "Feature", "properties": {"norad_id": 31511, "name": "FENGYUN 1C DEB", "group": "fengyun-1c-debris", "lat": -13.204987508951861, "lon": -13.723119374856058, "alt_km": 723.9845890393126, "timestamp": "2025-12-25T07:00:34.330961+00:00", "meta": {"OBJECT_NAME": "FENGYUN 1C DEB", "OBJECT_ID": "1999-025BXA", "EPOCH": "2025-12-24T18:20:10.999680", "MEAN_MOTION": 14.28150849, "ECCENTRICITY": 0.01093127, "INCLINATION": 99.0669, "RA_OF_ASC_NODE": 167.876, "ARG_OF_PERICENTER": 192.3166, "MEAN_ANOMALY": 167.5338, "EPHEMERIS_TYPE": 0, "CLASSIFICATION_TYPE": "U", "NORAD_CAT_ID": 31511, "ELEMENT_SET_NO": 999, "REV_AT_EPOCH": 95972, "BSTAR": 0.0013644628, "MEAN_MOTION_DOT": 3.573e-05, "MEAN_MOTION_DDOT": 0}, "tle": {"line1": "1 31511U 99025BXA 25358.76401620  .00003573  00000+0  13645-2 0  9993", "line2": "2 31511  99.0669 167.8760 0109312 192.3166 167.5338 14.28150849959728"}}, "geometry": {"type": "Point", "coordinates": [-13.723119374856058, -13.204987508951861]}}]}